{
    "list":[
        {
            "id": 1,
            "name": "LEVEL UP LTD",
            "address": {
                "line1": "119 Bishopgate Street",
                "city": "Northampton",
                "postcode": "DL9 1ER"
            },
            "distance": 2.2,
            "ofsted": 1
        },
        {
            "id": 2,
            "name": "Exam Snap Academy",
            "address": {
                "line1": "72 Chapel Lane",
                "city": "Coventry",
                "postcode": "CV7 5YU"
            },
            "distance": 8.9,
            "ofsted": 2
        },
        {
            "id": 3,
            "name": "THINK POD TRAINING LTD",
            "address": {
                "line1": "113 Seafield Place",
                "city": "Gloucester",
                "postcode": "GL54 5YU"
            },
            "distance": 23,
            "ofsted": 2
        },
        {
            "id": 4,
            "name": "Learn Forward Limited",
            "national": true,
            "address": {
                "line1": "26 James Boulevard",
                "city": "Nottingham",
                "postcode": "NG32 3WT"
            },
            "distance": 56,
            "ofsted": 1
        },
        {
            "id": 5,
            "name": "Smart Box Partnership",
            "address": {
                "line1": "61 Ramsgate Rd",
                "city": "Birmingham",
                "postcode": "BB1 5AT"
            },
            "distance": 4.5,
            "ofsted": 3
        },
        {
            "id": 6,
            "name": "Stella Nova Ltd.",
            "address": {
                "line1": "55 Vice Lane",
                "city": "Peterborough",
                "postcode": "PA60 9BX"
            },
            "distance": 90,
            "ofsted": 2
        },
        {
            "id": 7,
            "name": "QA LEARNOVATE LIMITED",
            "national": true,
            "address": {
                "line1": "40 Mounthoolie Lane",
                "city": "Newcastle",
                "postcode": "NW62 7JX"
            },
            "distance": 27,
            "ofsted": 2
        },
        {
            "id": 8,
            "name": "Book Bot LTD",
            "national": true,
            "address": {
                "line1": "84 Whatlington Road",
                "city": "Alcester",
                "postcode": "AB51 9ZE"
            },
            "distance": 19,
            "ofsted": 2
        },
        {
            "id": 9,
            "name": "Knowtably Limited",
            "address": {
                "line1": "110 Jesmond Rd",
                "city": "London",
                "postcode": "LN34 2WD"
            },
            "distance": 12.7,
            "ofsted": 2
        },
        {
            "id": 10,
            "name": "Moving the Grade Ltd",
            "address": {
                "line1": "90 Main Road",
                "city": "London",
                "postcode": "LD9 9AT"
            },
            "distance": 41.2,
            "ofsted": 2
        },
        {
            "id": 11,
            "name": "ROCKET TRAINING",
            "address": {
                "line1": "136 Victoria Road",
                "city": "Huddersfield",
                "postcode": "HD7 6WT"
            },
            "distance": 16,
            "ofsted": 0
        },
        {
            "id": 12,
            "name": "Swing Start Partnership",
            "address": {
                "line1": "73 Hounslow Rd",
                "city": "Doncaster",
                "postcode": "DE12 4XE"
            },
            "distance": 3.9,
            "ofsted": 2
        },
        {
            "id": 13,
            "name": "Chrysalis",
            "address": {
                "line1": "80 Thames Street",
                "city": "Exeter",
                "postcode": "EX6 2SQ"
            },
            "distance": 6.1,
            "ofsted": 2
        },
        {
            "id": 14,
            "name": "GUIDE AND GROW LTD",
            "address": {
                "line1": "2 High St",
                "city": "Oxford",
                "postcode": "OT6 2FJ"
            },
            "distance": 9.2,
            "ofsted": 0
        },
        {
            "id": 15,
            "name": "Future Think",
            "address": {
                "line1": "115 Union Terrace",
                "city": "Carlisle",
                "postcode": "CL8 4PL"
            },
            "distance": 74.3,
            "ofsted": 1
        },
        {
            "id": 16,
            "name": "Teach Academy",
            "address": {
                "line1": "45 Hoppleton Road",
                "city": "Leicester",
                "postcode": "LA2 6LA"
            },
            "distance": 62.9,
            "ofsted": 4
        },
        {
            "id": 17,
            "name": "EDUSPHERE LIMITED",
            "address": {
                "line1": "88 Merthyr Road",
                "city": "Hereford",
                "postcode": "HR1 3XB"
            },
            "distance": 110,
            "ofsted": 3
        },
        {
            "id": 18,
            "name": "SCHOOL SOURCE LTD",
            "national": true,
            "address": {
                "line1": "130 Park Place",
                "city": "Derby",
                "postcode": "DE4 7XY"
            },
            "distance": 30.2,
            "ofsted": 3
        },
        {
            "id": 19,
            "name": "Learn 360 Partnership Ltd.",
            "national": true,
            "address": {
                "line1": "90 Park End St",
                "city": "Plymouth",
                "postcode": "PM7 7NZ"
            },
            "distance": 20.5,
            "ofsted": 3
        }
    ]
}